CCSDS_OMM_VERS = 2.0
CREATION_DATE  = 
ORIGINATOR     = 

OBJECT_NAME    = SL-14 R/B
OBJECT_ID      = 1986-046B
CENTER_NAME    = EARTH
REF_FRAME      = TEME
TIME_SYSTEM    = UTC
MEAN_ELEMENT_THEORY = SGP/SGP4

EPOCH          = 2025-12-13T23:51:54.727488
MEAN_MOTION    = 14.85486269
ECCENTRICITY   = .00238868
INCLINATION    = 82.4809
RA_OF_ASC_NODE = 161.1291
ARG_OF_PERICENTER = 148.2017
MEAN_ANOMALY   = 212.0647

EPHEMERIS_TYPE = 0
CLASSIFICATION_TYPE = U
NORAD_CAT_ID   = 16792
ELEMENT_SET_NO = 999
REV_AT_EPOCH   = 11368
BSTAR          = .82301999E-4
MEAN_MOTION_DOT = .738E-5
MEAN_MOTION_DDOT = 0

CCSDS_OMM_VERS = 2.0
CREATION_DATE  = 
ORIGINATOR     = 

OBJECT_NAME    = SL-14 R/B
OBJECT_ID      = 1986-055B
CENTER_NAME    = EARTH
REF_FRAME      = TEME
TIME_SYSTEM    = UTC
MEAN_ELEMENT_THEORY = SGP/SGP4

EPOCH          = 2025-12-14T00:03:59.228640
MEAN_MOTION    = 14.85532411
ECCENTRICITY   = .00175033
INCLINATION    = 82.5202
RA_OF_ASC_NODE = 207.1862
ARG_OF_PERICENTER = 254.8599
MEAN_ANOMALY   = 220.9037

EPHEMERIS_TYPE = 0
CLASSIFICATION_TYPE = U
NORAD_CAT_ID   = 16882
ELEMENT_SET_NO = 999
REV_AT_EPOCH   = 10664
BSTAR          = .70363859E-4
MEAN_MOTION_DOT = .633E-5
MEAN_MOTION_DDOT = 0

CCSDS_OMM_VERS = 2.0
CREATION_DATE  = 
ORIGINATOR     = 

OBJECT_NAME    = AJISAI (EGS)
OBJECT_ID      = 1986-061A
CENTER_NAME    = EARTH
REF_FRAME      = TEME
TIME_SYSTEM    = UTC
MEAN_ELEMENT_THEORY = SGP/SGP4

EPOCH          = 2025-12-14T00:29:10.787136
MEAN_MOTION    = 12.44514292
ECCENTRICITY   = .00112976
INCLINATION    = 50.0113
RA_OF_ASC_NODE = 356.7796
ARG_OF_PERICENTER = 69.1215
MEAN_ANOMALY   = 325.7408

EPHEMERIS_TYPE = 0
CLASSIFICATION_TYPE = U
NORAD_CAT_ID   = 16908
ELEMENT_SET_NO = 999
REV_AT_EPOCH   = 45733
BSTAR          = .50473436E-4
MEAN_MOTION_DOT = -.9E-6
MEAN_MOTION_DDOT = 0

CCSDS_OMM_VERS = 2.0
CREATION_DATE  = 
ORIGINATOR     = 

OBJECT_NAME    = COSMOS 1812
OBJECT_ID      = 1987-003A
CENTER_NAME    = EARTH
REF_FRAME      = TEME
TIME_SYSTEM    = UTC
MEAN_ELEMENT_THEORY = SGP/SGP4

EPOCH          = 2025-12-13T20:57:58.609728
MEAN_MOTION    = 15.75773538
ECCENTRICITY   = .00072175
INCLINATION    = 82.4866
RA_OF_ASC_NODE = 290.7886
ARG_OF_PERICENTER = 85.3062
MEAN_ANOMALY   = 274.9027

EPHEMERIS_TYPE = 0
CLASSIFICATION_TYPE = U
NORAD_CAT_ID   = 17295
ELEMENT_SET_NO = 999
REV_AT_EPOCH   = 13083
BSTAR          = .67999957E-3
MEAN_MOTION_DOT = .105455E-2
MEAN_MOTION_DDOT = 0

CCSDS_OMM_VERS = 2.0
CREATION_DATE  = 
ORIGINATOR     = 

OBJECT_NAME    = SL-14 R/B
OBJECT_ID      = 1987-024B
CENTER_NAME    = EARTH
REF_FRAME      = TEME
TIME_SYSTEM    = UTC
MEAN_ELEMENT_THEORY = SGP/SGP4

EPOCH          = 2025-12-13T22:10:49.696320
MEAN_MOTION    = 14.86025085
ECCENTRICITY   = .00181761
INCLINATION    = 82.5273
RA_OF_ASC_NODE = 173.3417
ARG_OF_PERICENTER = 180.2423
MEAN_ANOMALY   = 179.8789

EPHEMERIS_TYPE = 0
CLASSIFICATION_TYPE = U
NORAD_CAT_ID   = 17567
ELEMENT_SET_NO = 999
REV_AT_EPOCH   = 7539
BSTAR          = .78509252E-4
MEAN_MOTION_DOT = .712E-5
MEAN_MOTION_DDOT = 0

CCSDS_OMM_VERS = 2.0
CREATION_DATE  = 
ORIGINATOR     = 

OBJECT_NAME    = COSMOS 1833
OBJECT_ID      = 1987-027A
CENTER_NAME    = EARTH
REF_FRAME      = TEME
TIME_SYSTEM    = UTC
MEAN_ELEMENT_THEORY = SGP/SGP4

EPOCH          = 2025-12-13T20:24:38.192256
MEAN_MOTION    = 14.13021990
ECCENTRICITY   = .00225756
INCLINATION    = 70.9138
RA_OF_ASC_NODE = 146.4423
ARG_OF_PERICENTER = 330.1794
MEAN_ANOMALY   = 29.8039

EPHEMERIS_TYPE = 0
CLASSIFICATION_TYPE = U
NORAD_CAT_ID   = 17589
ELEMENT_SET_NO = 999
REV_AT_EPOCH   = 99818
BSTAR          = .12183999E-3
MEAN_MOTION_DOT = .18E-5
MEAN_MOTION_DDOT = 0

CCSDS_OMM_VERS = 2.0
CREATION_DATE  = 
ORIGINATOR     = 

OBJECT_NAME    = SL-16 R/B
OBJECT_ID      = 1987-027B
CENTER_NAME    = EARTH
REF_FRAME      = TEME
TIME_SYSTEM    = UTC
MEAN_ELEMENT_THEORY = SGP/SGP4

EPOCH          = 2025-12-13T17:16:53.561568
MEAN_MOTION    = 14.17152286
ECCENTRICITY   = .00073645
INCLINATION    = 71.0030
RA_OF_ASC_NODE = 97.6524
ARG_OF_PERICENTER = 258.2852
MEAN_ANOMALY   = 101.7446

EPHEMERIS_TYPE = 0
CLASSIFICATION_TYPE = U
NORAD_CAT_ID   = 17590
ELEMENT_SET_NO = 999
REV_AT_EPOCH   = 316
BSTAR          = .64038638E-4
MEAN_MOTION_DOT = .81E-6
MEAN_MOTION_DDOT = 0

CCSDS_OMM_VERS = 2.0
CREATION_DATE  = 
ORIGINATOR     = 

OBJECT_NAME    = SL-14 R/B
OBJECT_ID      = 1987-038B
CENTER_NAME    = EARTH
REF_FRAME      = TEME
TIME_SYSTEM    = UTC
MEAN_ELEMENT_THEORY = SGP/SGP4

EPOCH          = 2025-12-13T19:23:06.452448
MEAN_MOTION    = 14.85262451
ECCENTRICITY   = .00208753
INCLINATION    = 82.5016
RA_OF_ASC_NODE = 17.6950
ARG_OF_PERICENTER = 88.7778
MEAN_ANOMALY   = 271.5830

EPHEMERIS_TYPE = 0
CLASSIFICATION_TYPE = U
NORAD_CAT_ID   = 17912
ELEMENT_SET_NO = 999
REV_AT_EPOCH   = 6648
BSTAR          = .69572704E-4
MEAN_MOTION_DOT = .624E-5
MEAN_MOTION_DDOT = 0

CCSDS_OMM_VERS = 2.0
CREATION_DATE  = 
ORIGINATOR     = 

OBJECT_NAME    = COSMOS 1844
OBJECT_ID      = 1987-041A
CENTER_NAME    = EARTH
REF_FRAME      = TEME
TIME_SYSTEM    = UTC
MEAN_ELEMENT_THEORY = SGP/SGP4

EPOCH          = 2025-12-13T23:25:53.342976
MEAN_MOTION    = 14.14526158
ECCENTRICITY   = .00300512
INCLINATION    = 70.8972
RA_OF_ASC_NODE = 214.9637
ARG_OF_PERICENTER = 155.1619
MEAN_ANOMALY   = 205.0957

EPHEMERIS_TYPE = 0
CLASSIFICATION_TYPE = U
NORAD_CAT_ID   = 17973
ELEMENT_SET_NO = 999
REV_AT_EPOCH   = 99146
BSTAR          = .2878895E-4
MEAN_MOTION_DOT = .7E-7
MEAN_MOTION_DDOT = 0

CCSDS_OMM_VERS = 2.0
CREATION_DATE  = 
ORIGINATOR     = 

OBJECT_NAME    = SL-14 R/B
OBJECT_ID      = 1987-055B
CENTER_NAME    = EARTH
REF_FRAME      = TEME
TIME_SYSTEM    = UTC
MEAN_ELEMENT_THEORY = SGP/SGP4

EPOCH          = 2025-12-13T17:34:08.152320
MEAN_MOTION    = 14.85522728
ECCENTRICITY   = .00193624
INCLINATION    = 82.5000
RA_OF_ASC_NODE = 70.0534
ARG_OF_PERICENTER = 299.8354
MEAN_ANOMALY   = 60.0937

EPHEMERIS_TYPE = 0
CLASSIFICATION_TYPE = U
NORAD_CAT_ID   = 18153
ELEMENT_SET_NO = 999
REV_AT_EPOCH   = 5717
BSTAR          = .79331091E-4
MEAN_MOTION_DOT = .711E-5
MEAN_MOTION_DDOT = 0

CCSDS_OMM_VERS = 2.0
CREATION_DATE  = 
ORIGINATOR     = 

OBJECT_NAME    = COSMOS 1867
OBJECT_ID      = 1987-060A
CENTER_NAME    = EARTH
REF_FRAME      = TEME
TIME_SYSTEM    = UTC
MEAN_ELEMENT_THEORY = SGP/SGP4

EPOCH          = 2025-12-13T22:19:33.633696
MEAN_MOTION    = 14.31486290
ECCENTRICITY   = .00136318
INCLINATION    = 65.0089
RA_OF_ASC_NODE = 186.8689
ARG_OF_PERICENTER = 271.2456
MEAN_ANOMALY   = 88.7066

EPHEMERIS_TYPE = 0
CLASSIFICATION_TYPE = U
NORAD_CAT_ID   = 18187
ELEMENT_SET_NO = 999
REV_AT_EPOCH   = 766
BSTAR          = .38258003E-4
MEAN_MOTION_DOT = .2E-7
MEAN_MOTION_DDOT = 0

CCSDS_OMM_VERS = 2.0
CREATION_DATE  = 
ORIGINATOR     = 

OBJECT_NAME    = SL-14 R/B
OBJECT_ID      = 1988-001B
CENTER_NAME    = EARTH
REF_FRAME      = TEME
TIME_SYSTEM    = UTC
MEAN_ELEMENT_THEORY = SGP/SGP4

EPOCH          = 2025-12-13T22:10:15.290976
MEAN_MOTION    = 14.85425528
ECCENTRICITY   = .00185899
INCLINATION    = 82.5133
RA_OF_ASC_NODE = 276.0335
ARG_OF_PERICENTER = 157.2908
MEAN_ANOMALY   = 202.9134

EPHEMERIS_TYPE = 0
CLASSIFICATION_TYPE = U
NORAD_CAT_ID   = 18749
ELEMENT_SET_NO = 999
REV_AT_EPOCH   = 2929
BSTAR          = .78006243E-4
MEAN_MOTION_DOT = .698E-5
MEAN_MOTION_DDOT = 0

