SL-14 R/B               
1 16792U 86046B   25347.99438342  .00000738  00000+0  82302-4 0  9998
2 16792  82.4809 161.1291 0023886 148.2017 212.0647 14.85486269113683
SL-14 R/B               
1 16882U 86055B   25348.00276885  .00000633  00000+0  70364-4 0  9992
2 16882  82.5202 207.1862 0017503 254.8599 220.9037 14.85532411106644
AJISAI (EGS)            
1 16908U 86061A   25348.02026374 -.00000090  00000+0  50473-4 0  9993
2 16908  50.0113 356.7796 0011297  69.1215 325.7408 12.44514292457338
COSMOS 1812             
1 17295U 87003A   25347.87359502  .00105455  00000+0  68000-3 0  9998
2 17295  82.4866 290.7886 0007217  85.3062 274.9027 15.75773538130838
SL-14 R/B               
1 17567U 87024B   25347.92418630  .00000712  00000+0  78509-4 0  9993
2 17567  82.5273 173.3417 0018176 180.2423 179.8789 14.86025085 75396
COSMOS 1833             
1 17589U 87027A   25347.85044204  .00000180  00000+0  12184-3 0  9999
2 17589  70.9138 146.4423 0022575 330.1794  29.8039 14.13021990998188
SL-16 R/B               
1 17590U 87027B   25347.72006437  .00000081  00000+0  64039-4 0  9990
2 17590  71.0030  97.6524 0007364 258.2852 101.7446 14.17152286  3160
SL-14 R/B               
1 17912U 87038B   25347.80771357  .00000624  00000+0  69573-4 0  9990
2 17912  82.5016  17.6950 0020875  88.7778 271.5830 14.85262451 66487
COSMOS 1844             
1 17973U 87041A   25347.97631184  .00000007  00000+0  28789-4 0  9991
2 17973  70.8972 214.9637 0030051 155.1619 205.0957 14.14526158991465
SL-14 R/B               
1 18153U 87055B   25347.73203880  .00000711  00000+0  79331-4 0  9990
2 18153  82.5000  70.0534 0019362 299.8354  60.0937 14.85522728 57174
COSMOS 1867             
1 18187U 87060A   25347.93025039  .00000002  00000+0  38258-4 0  9999
2 18187  65.0089 186.8689 0013631 271.2456  88.7066 14.31486290  7664
SL-14 R/B               
1 18749U 88001B   25347.92378809  .00000698  00000+0  78006-4 0  9990
2 18749  82.5133 276.0335 0018589 157.2908 202.9134 14.85425528 29299
